#aV2014 12 26  0  0  0.00000000     288 DD+AD WGS84 FIT  NGA
## 1824 432000.00000000   300.00000000 57017 0.0000000000000
+   32     1  2  3  4  5  6  7  8  9 10 11 12 13 14 15 16 17
+         18 19 20 21 22 23 24 25 26 27 28 29 30 31 32  0  0
+          0  0  0  0  0  0  0  0  0  0  0  0  0  0  0  0  0
+          0  0  0  0  0  0  0  0  0  0  0  0  0  0  0  0  0
+          0  0  0  0  0  0  0  0  0  0  0  0  0  0  0  0  0
++         2  2  2  2  2  2  2  2  2  2  2  2  2  2  2  2  2
++         2  2  2  2  2  2  2  2  2  2  2  2  2  2  2  0  0
++         0  0  0  0  0  0  0  0  0  0  0  0  0  0  0  0  0
++         0  0  0  0  0  0  0  0  0  0  0  0  0  0  0  0  0
++         0  0  0  0  0  0  0  0  0  0  0  0  0  0  0  0  0
%c cc cc ccc ccc cccc cccc cccc cccc ccccc ccccc ccccc ccccc
%c cc cc ccc ccc cccc cccc cccc cccc ccccc ccccc ccccc ccccc
%f  0.0000000  0.000000000  0.00000000000  0.000000000000000
%f  0.0000000  0.000000000  0.00000000000  0.000000000000000
%i    0    0    0    0      0      0      0      0         0
%i    0    0    0    0      0      0      0      0         0
/*      NGA, ST. LOUIS,MO.                                  
/*   EPHEMERIS COMPUTED FROM  1 DAYS OF DATA                
/*   EPOCHA SMOOTHER                                       
/* CCCCCCCCCCCCCCCCCCCCCCCCCCCCCCCCCCCCCCCCCCCCCCCCCCCCCCCCC
*  2014 12 26 12 20  0.00000000
P  1  22769.363502  12982.294616   4758.151081    -10.790878                    
V  1   3294.091359   5731.458286 -30903.564674      0.003688                    
P  2  -8664.557883 -20079.740832  15724.223882    538.114384                    
V  2  16901.130515   9414.296514  21316.542296      0.022612                    
P  3  13426.740351   9948.953920  20639.124461    104.133351                    
V  3  -3929.127327  25933.706269  -9992.818092      0.279803                    
P  4  18504.544326  18493.716973  -5653.163290     -4.771461                    
V  4  -7296.197612  -1439.034417 -30010.870389     -0.004656                    
P  5  -3212.299297 -24969.302407  -8233.309305   -301.187989                    
V  5   4291.360793 -10043.359832  29146.394873      0.049098                    
P  6   5588.389946 -14531.905407  21507.625085     35.552162                    
V  6  22235.133497  15904.896054   4948.700441      0.087600                    
P  7  21496.378986   3515.253914 -15343.500756    425.783230                    
V  7  14389.993192  13241.095579  22701.953235      0.035113                    
P  8  13846.760146  21343.977514   8847.497140     16.868463                    
V  8  -8453.002790  -6695.844876  29489.311757      0.001172                    
P  9  25099.745676  -6652.121883   5605.836013    -37.385656                    
V  9  -5420.115854   5394.971105  30633.855899     -0.100305                    
P 10   9244.920148 -22970.791261   8625.780153   -155.958753                    
V 10   2086.154745  11987.523648  28880.059628     -0.017308                    
P 11  23010.393754  12281.224657  -5939.091540   -546.349943                    
V 11  -8007.353761   2229.990034 -28817.383017     -0.027046                    
P 12 -11052.072267 -13695.910887  19885.605625    256.498185                    
V 12   4762.382267 -24838.245522 -14196.430447      0.029065                    
P 13   2636.865263 -15907.409258 -21317.180440    -73.024737                    
V 13  25564.757447  -7321.019072   8525.517393     -0.033695                    
P 14 -18531.917835  14981.569475  11808.575336    102.777871                    
V 14 -14599.887063   2683.831886 -26982.662615     -0.035637                    
P 15 -17583.351639  -6947.013702 -18848.815881   -222.595022                    
V 15  20710.474386 -11749.329557 -14735.405890     -0.022290                    
P 16   1247.347387  24925.413300  -8584.251005   -170.141771                    
V 16  -3931.088126  10363.837224  30069.893580      0.030623                    
P 17  19491.582216 -14878.199337  10193.017739   -146.217248                    
V 17  12593.312918  -2319.428428 -28466.535355     -0.022664                    
P 18 -15058.052261  10810.991661 -18443.030173    367.813308                    
V 18    328.851502 -24720.542716 -14707.576490      0.026719                    
P 19  12168.536390  11252.947101 -21020.117717   -494.043396                    
V 19 -24733.167031   8582.979734  -9361.407484     -0.015944                    
P 20  15658.572693   3492.969215  21018.599866    271.611783                    
V 20  -1655.425258  27152.104973  -3159.308795      0.042627                    
P 21 -19102.643075   2439.994166 -17792.164754   -402.405372                    
V 21 -18231.215664 -15565.524150  16412.680836     -0.022678                    
P 22 -10004.561325  22209.536067 -10169.278684    300.717652                    
V 22  -2330.084983 -13662.787307 -27147.984916      0.039491                    
P 23  22422.828080   1812.634969  14576.195156    -77.205194                    
V 23 -15913.548957   8947.208598  23157.063882     -0.027065                    
P 24 -22174.662573 -14667.636845   1541.129497    -40.718318                    
V 24     86.068559  -3492.941862 -31463.624583     -0.005696                    
P 25 -14950.113090   1058.389666  21839.642652      7.133049                    
V 25   2876.813263 -27732.622081   3444.480316     -0.022149                    
P 26  -3844.585422 -14774.250224 -22394.286624   -170.387197                    
V 26  25606.256428  -7955.319385   1151.084760     -0.132566                    
P 27    788.402814  15762.005311 -21362.240381     39.813277                    
V 27 -25080.685393  10272.993762   6736.001802      0.027190                    
P 28  12500.433206 -18649.907799 -13478.413921    408.002970                    
V 28  -1542.641234  18191.309321 -25544.847393      0.027297                    
P 29 -25053.873055   3372.100370   8113.672185    581.987021                    
V 29   8817.652517  -5734.617836  29753.949275      0.023699                    
P 30  14803.384348  -6726.451068 -21008.223237    -85.841505                    
V 30  19670.351371  18040.406519   8037.838531     -0.007358                    
P 31  -3583.454942  15542.433085  21325.229755    326.700513                    
V 31 -21411.906447 -16055.382502   8483.827183     -0.006951                    
P 32   6110.886753  21807.347666  14304.628141   -262.034995                    
V 32  -5589.820202  17216.691094 -23318.104874      0.087210                    
EOF
